NORAD_CAT_ID,OBJECT_NAME,OBJECT_TYPE,EPOCH,MEAN_MOTION,ECCENTRICITY,INCLINATION,RA_OF_ASC_NODE,ARG_OF_PERICENTER,MEAN_ANOMALY,BSTAR,MEAN_MOTION_DOT,MEAN_MOTION_DDOT,TLE_LINE0,TLE_LINE1,TLE_LINE2,SEMIMAJOR_AXIS,PERIOD,APOGEE,PERIGEE,DECAYED
53824.0,STARLINK-4757,PAYLOAD,2024-05-30 19:40:56,15.08844006,0.0001256,53.2178,332.6259,95.7394,264.3741,0.00010412,1.37e-05,0.0,0 STARLINK-4757,1 53824U 22114G   24151.82010193  .00001370  00000-0  10412-3 0  9991,2 53824  53.2178 332.6259 0001256  95.7394 264.3741 15.08844006 94489,6917.868,95.437,540.602,538.864,0.0
53824.0,STARLINK-4757,PAYLOAD,2024-05-30 21:16:19,15.08844557,0.0001261,53.2179,332.3276,94.6399,265.4737,0.0001066,1.409e-05,0.0,0 STARLINK-4757,1 53824U 22114G   24151.88634139  .00001409  00000-0  10660-3 0  9997,2 53824  53.2179 332.3276 0001261  94.6399 265.4737 15.08844557 94944,6917.866,95.437,540.604,538.859,0.0
53824.0,STARLINK-4757,PAYLOAD,2024-05-31 11:34:47,15.08847148,0.0001307,53.218,329.6512,91.0587,269.0554,0.00011618,1.562e-05,0.0,0 STARLINK-4757,1 53824U 22114G   24152.48249838  .00001562  00000-0  11618-3 0  9996,2 53824  53.2180 329.6512 0001307  91.0587 269.0554 15.08847148 95036,6917.859,95.437,540.628,538.819,0.0
53824.0,STARLINK-4757,PAYLOAD,2024-05-31 19:31:43,15.08845204,0.0001192,53.2166,328.1646,87.1531,272.9597,8.3649e-05,1.044e-05,0.0,0 STARLINK-4757,1 53824U 22114G   24152.81369875  .00001044  00000-0  83649-4 0  9996,2 53824  53.2166 328.1646 0001192  87.1531 272.9597 15.08845204 95085,6917.864,95.437,540.554,538.905,0.0
53824.0,STARLINK-4757,PAYLOAD,2024-06-01 05:04:01,15.08853539,0.000126,53.2172,326.3805,85.2255,274.8881,0.00010807,1.433e-05,0.0,0 STARLINK-4757,1 53824U 22114G   24153.21113120  .00001433  00000-0  10807-3 0  9998,2 53824  53.2172 326.3805 0001260  85.2255 274.8881 15.08853539 94690,6917.839,95.437,540.576,538.832,0.0
53824.0,STARLINK-4757,PAYLOAD,2024-06-01 20:57:54,15.08841713,0.0001435,53.2191,323.404,96.5957,263.5199,-1.4702e-06,-3.11e-06,0.0,0 STARLINK-4757,1 53824U 22114G   24153.87354291 -.00000311  00000-0 -14702-5 0  9992,2 53824  53.2191 323.4040 0001435  96.5957 263.5199 15.08841713 94797,6917.875,95.437,540.733,538.747,0.0
53824.0,STARLINK-4757,PAYLOAD,2024-06-02 04:54:49,15.08847414,0.0001473,53.2193,321.9183,94.8038,265.3122,3.1941e-05,2.2e-06,0.0,0 STARLINK-4757,1 53824U 22114G   24154.20473790  .00000220  00000-0  31941-4 0  9996,2 53824  53.2193 321.9183 0001473  94.8038 265.3122 15.08847414 95299,6917.858,95.437,540.742,538.704,0.0
53824.0,STARLINK-4757,PAYLOAD,2024-06-03 11:07:09,15.08825482,0.0001698,53.2207,316.2692,102.9589,257.1593,0.00030368,4.546e-05,0.0,0 STARLINK-4757,1 53824U 22114G   24155.46330900  .00004546  00000-0  30368-3 0  9996,2 53824  53.2207 316.2692 0001698 102.9589 257.1593 15.08825482 95032,6917.925,95.438,540.964,538.615,0.0
53824.0,STARLINK-4757,PAYLOAD,2024-06-03 17:28:43,15.08810948,0.0001207,53.2187,315.0827,92.264,267.8491,0.00050292,7.719e-05,0.0,0 STARLINK-4757,1 53824U 22114G   24155.72827870  .00007719  00000-0  50292-3 0  9995,2 53824  53.2187 315.0827 0001207  92.2640 267.8491 15.08810948 95071,6917.969,95.439,540.669,538.999,0.0
53824.0,STARLINK-4757,PAYLOAD,2024-06-03 20:39:28,15.0884018,0.0001371,53.2182,314.4876,86.6368,273.4781,6.7087e-05,7.8e-06,0.0,0 STARLINK-4757,1 53824U 22114G   24155.86074516  .00000780  00000-0  67087-4 0  9993,2 53824  53.2182 314.4876 0001371  86.6368 273.4781 15.08840180 95547,6917.88,95.438,540.693,538.796,0.0
53824.0,STARLINK-4757,PAYLOAD,2024-06-04 10:57:56,15.08839355,0.0001379,53.2163,311.8104,85.2675,274.8474,0.00011337,1.517e-05,0.0,0 STARLINK-4757,1 53824U 22114G   24156.45690547  .00001517  00000-0  11337-3 0  9992,2 53824  53.2163 311.8104 0001379  85.2675 274.8474 15.08839355 95631,6917.882,95.438,540.701,538.793,0.0
53824.0,STARLINK-4757,PAYLOAD,2024-06-04 20:30:15,15.08840486,0.0001155,53.2151,310.0238,76.6721,283.44,0.00014814,2.071e-05,0.0,0 STARLINK-4757,1 53824U 22114G   24156.85434439  .00002071  00000-0  14814-3 0  9991,2 53824  53.2151 310.0238 0001155  76.6721 283.4400 15.08840486 95693,6917.879,95.438,540.543,538.945,0.0
53824.0,STARLINK-4757,PAYLOAD,2024-06-05 02:51:47,15.08848888,0.0001756,53.2237,308.8375,88.5821,271.5373,0.00017634,2.52e-05,0.0,0 STARLINK-4757,1 53824U 22114G   24157.11929921  .00002520  00000-0  17634-3 0  9998,2 53824  53.2237 308.8375 0001756  88.5821 271.5373 15.08848888 95281,6917.853,95.437,540.933,538.503,0.0
53824.0,STARLINK-4757,PAYLOAD,2024-06-05 10:48:44,15.0881948,0.0001253,53.2146,307.3479,85.6955,274.4181,-0.00020503,-3.548e-05,0.0,0 STARLINK-4757,1 53824U 22114G   24157.45051563 -.00003548  00000-0 -20503-3 0  9995,2 53824  53.2146 307.3479 0001253  85.6955 274.4181 15.08819480 95338,6917.943,95.439,540.675,538.941,0.0
53824.0,STARLINK-4757,PAYLOAD,2024-06-05 17:10:16,15.08831363,7.93e-05,53.2143,306.1577,65.0097,295.0977,-1.6951e-05,-5.57e-06,0.0,0 STARLINK-4757,1 53824U 22114G   24157.71547155 -.00000557  00000-0 -16951-4 0  9991,2 53824  53.2143 306.1577 0000793  65.0097 295.0977 15.08831363 95378,6917.907,95.438,540.32,539.223,0.0
53824.0,STARLINK-4757,PAYLOAD,2024-06-06 02:42:35,15.08841322,0.0001366,53.2204,304.374,78.1199,281.9946,7.0442e-05,8.33e-06,0.0,0 STARLINK-4757,1 53824U 22114G   24158.11290739  .00000833  00000-0  70442-4 0  9999,2 53824  53.2204 304.3740 0001366  78.1199 281.9946 15.08841322 95436,6917.876,95.437,540.686,538.796,0.0
53824.0,STARLINK-4757,PAYLOAD,2024-06-07 08:54:55,15.08819458,7.33e-05,53.223,298.7281,352.4716,7.6265,3.3484e-05,2.45e-06,0.0,0 STARLINK-4757,1 53824U 22114G   24159.37148090  .00000245  00000-0  33484-4 0  9992,2 53824  53.2230 298.7281 0000733 352.4716   7.6265 15.08819458 95624,6917.943,95.439,540.315,539.301,0.0
53824.0,STARLINK-4757,PAYLOAD,2024-06-07 18:27:14,15.08840344,7.43e-05,53.2179,296.9407,88.4703,271.6375,0.00014274,1.985e-05,0.0,0 STARLINK-4757,1 53824U 22114G   24159.76891205  .00001985  00000-0  14274-3 0  9995,2 53824  53.2179 296.9407 0000743  88.4703 271.6375 15.08840344 95688,6917.879,95.438,540.258,539.23,0.0
53824.0,STARLINK-4757,PAYLOAD,2024-06-08 02:24:08,15.0885965,2.61e-05,53.2196,295.4527,281.8217,78.2746,-7.9291e-05,-1.55e-05,0.0,0 STARLINK-4757,1 53824U 22114G   24160.10009709 -.00001550  00000-0 -79291-4 0  9996,2 53824  53.2196 295.4527 0000261 281.8217  78.2746 15.08859650 95737,6917.82,95.436,539.866,539.505,0.0
53824.0,STARLINK-4757,PAYLOAD,2024-06-08 15:07:14,15.0884226,7e-05,53.2223,293.076,272.6971,87.3941,0.00022602,3.312e-05,0.0,0 STARLINK-4757,1 53824U 22114G   24160.63002982  .00003312  00000-0  22602-3 0  9999,2 53824  53.2223 293.0760 0000700 272.6971  87.3941 15.08842260 96260,6917.873,95.437,540.223,539.254,0.0
53824.0,STARLINK-4757,PAYLOAD,2024-06-08 16:42:37,15.08848112,7.71e-05,53.2159,292.7769,111.208,248.8994,0.00012606,1.72e-05,0.0,0 STARLINK-4757,1 53824U 22114G   24160.69626832  .00001720  00000-0  12606-3 0  9995,2 53824  53.2159 292.7769 0000771 111.2080 248.8994 15.08848112 95825,6917.856,95.437,540.254,539.187,0.0
53824.0,STARLINK-4757,PAYLOAD,2024-06-09 08:36:29,15.08840889,0.000116,53.2156,289.8026,113.8021,246.3093,-9.1566e-05,-1.745e-05,0.0,0 STARLINK-4757,1 53824U 22114G   24161.35866973 -.00001745  00000-0 -91566-4 0  9993,2 53824  53.2156 289.8026 0001160 113.8021 246.3093 15.08840889 95928,6917.878,95.437,540.545,538.94,0.0
53824.0,STARLINK-4757,PAYLOAD,2024-06-09 16:33:24,15.08843781,0.0001263,53.2157,288.3143,117.9404,242.1716,3.9803e-05,3.46e-06,0.0,0 STARLINK-4757,1 53824U 22114G   24161.68986927  .00000346  00000-0  39803-4 0  9991,2 53824  53.2157 288.3143 0001263 117.9404 242.1716 15.08843781 96423,6917.869,95.437,540.608,538.86,0.0
53824.0,STARLINK-4757,PAYLOAD,2024-06-10 02:05:43,15.08850432,0.0002023,53.2127,286.5311,105.1224,254.9992,0.00011874,1.603e-05,0.0,0 STARLINK-4757,1 53824U 22114G   24162.08730697  .00001603  00000-0  11874-3 0  9991,2 53824  53.2127 286.5311 0002023 105.1224 254.9992 15.08850432 96036,6917.849,95.437,541.113,538.314,0.0
53824.0,STARLINK-4757,PAYLOAD,2024-06-10 13:13:26,15.08830236,0.0001359,53.217,284.4486,119.5928,240.52,7.0306e-05,8.31e-06,0.0,0 STARLINK-4757,1 53824U 22114G   24162.55099647  .00000831  00000-0  70306-4 0  9994,2 53824  53.2170 284.4486 0001359 119.5928 240.5200 15.08830236 96106,6917.91,95.438,540.715,538.835,0.0
53824.0,STARLINK-4757,PAYLOAD,2024-06-10 14:48:49,15.08837384,0.0001318,53.2151,284.1541,87.9121,272.2022,5.8592e-05,6.45e-06,0.0,0 STARLINK-4757,1 53824U 22114G   24162.61723522  .00000645  00000-0  58592-4 0  9993,2 53824  53.2151 284.1541 0001318  87.9121 272.2022 15.08837384 96567,6917.888,95.438,540.665,538.842,0.0
53824.0,STARLINK-4757,PAYLOAD,2024-06-11 14:39:36,15.08838846,0.0001217,53.2163,279.6924,90.4782,269.635,0.00015018,2.103e-05,0.0,0 STARLINK-4757,1 53824U 22114G   24163.61083715  .00002103  00000-0  15018-3 0  9993,2 53824  53.2163 279.6924 0001217  90.4782 269.6350 15.08838846 96719,6917.884,95.438,540.591,538.907,0.0
53824.0,STARLINK-4757,PAYLOAD,2024-06-12 00:11:54,15.08851604,0.0001404,53.2168,277.909,90.1428,269.9725,0.0003527,5.331e-05,0.0,0 STARLINK-4757,1 53824U 22114G   24164.00827234  .00005331  00000-0  35270-3 0  9997,2 53824  53.2168 277.9090 0001404  90.1428 269.9725 15.08851604 96324,6917.845,95.437,540.681,538.739,0.0
53824.0,STARLINK-4757,PAYLOAD,2024-06-12 14:30:22,15.08875176,0.0001268,53.2168,275.2333,88.4603,271.6535,0.00087019,0.00013601,0.0,0 STARLINK-4757,1 53824U 22114G   24164.60442210  .00013601  00000-0  87019-3 0  9997,2 53824  53.2168 275.2333 0001268  88.4603 271.6535 15.08875176 96417,6917.773,95.435,540.515,538.761,0.0
53824.0,STARLINK-4757,PAYLOAD,2024-06-13 12:45:45,15.08849016,0.0001357,53.2163,271.0697,88.2187,271.8961,-0.0001425,-2.556e-05,0.0,0 STARLINK-4757,1 53824U 22114G   24165.53177361 -.00002556  00000-0 -14250-3 0  9998,2 53824  53.2163 271.0697 0001357  88.2187 271.8961 15.08849016 96557,6917.853,95.437,540.657,538.779,0.0
